INTELSAT 902 (IS-902)   
1 26900U 01039A   26122.75860194 -.00000276  00000+0  00000+0 0  9997
2 26900   6.0045  72.3249 0004289 324.0260  47.3283  1.00271548 90241
INTELSAT 904 (IS-904)   
1 27380U 02007A   26122.19190229 -.00000219  00000+0  00000+0 0  9996
2 27380   6.8073  69.7262 0007949 342.1328 205.8613  1.00272743 51300
DIRECTV 5 (TEMPO 1)     
1 27426U 02023A   26122.88934075 -.00000050  00000+0  00000+0 0  9999
2 27426   4.7637  75.8608 0003772 335.5999  19.4093  1.00272999 87668
INTELSAT 905 (IS-905)   
1 27438U 02027A   26122.64151112  .00000101  00000+0  00000+0 0  9999
2 27438   6.6412  70.3383 0003867 345.8536 258.1168  1.00273453 50907
GALAXY 3C (G-3C)        
1 27445U 02030A   26122.89237410 -.00000145  00000+0  00000+0 0  9993
2 27445   3.6142  78.5817 0001906  22.6381 345.9801  1.00272250 46047
INTELSAT 906 (IS-906)   
1 27513U 02041A   26122.92383421  .00000021  00000+0  00000+0 0  9991
2 27513   5.6896  73.4645 0004089 342.4073 201.6850  1.00271854 86573
GALAXY 13 (HORIZONS-1)  
1 27954U 03044A   26122.73884185  .00000140  00000+0  00000+0 0  9998
2 27954   1.3024  84.3917 0002142 310.3275 301.9292  1.00269218 46118
INTELSAT 10-02          
1 28358U 04022A   26122.62573387 -.00000004  00000+0  00000+0 0  9991
2 28358   0.0471  71.2832 0001160  19.3398 354.1535  1.00271666 80096
DIRECTV 8               
1 28659U 05019A   26122.88752074  .00000008  00000+0  00000+0 0  9995
2 28659   0.0020 331.2653 0003321  79.3922  10.6065  1.00272383 76612
GALAXY 28 (G-28)        
1 28702U 05022A   26122.09280969 -.00000194  00000+0  00000+0 0  9997
2 28702   3.1815  79.4836 0003420 330.5940 176.2425  1.00268264 51517
GALAXY 16 (G-16)        
1 29236U 06023A   26122.89150743 -.00000120  00000+0  00000+0 0  9995
2 29236   0.0162 205.9386 0003004 204.8967  31.9173  1.00272274 72513
DIRECTV 9S              
1 29494U 06043A   26122.89107410 -.00000106  00000+0  00000+0 0  9990
2 29494   2.3050  81.4222 0004604 337.3759  21.5950  1.00272437 50924
GALAXY 17 (G-17)        
1 31307U 07016B   26122.89428078 -.00000199  00000+0  00000+0 0  9995
2 31307   2.8588  80.4485 0004664 337.7849  39.5175  1.00271739 69350
INTELSAT 11 (IS-11)     
1 32253U 07044B   26122.90416081 -.00000230  00000+0  00000+0 0  9996
2 32253   3.4487  79.1990 0000693 237.6431 194.4111  0.99052760 68005
HORIZONS-2              
1 32388U 07063B   26122.89653411 -.00000246  00000+0  00000+0 0  9991
2 32388   2.4865  81.1610 0003752 332.0334  56.5714  1.00271008 67362
DIRECTV 11              
1 32729U 08013A   26121.89323866 -.00000120  00000+0  00000+0 0  9994
2 32729   0.0043 326.0954 0000345  58.8510  57.2494  1.00272557 45122
GALAXY 18 (G-18)        
1 32951U 08024A   26122.23636289  .00000032  00000+0  00000+0 0  9999
2 32951   0.0192 270.2272 0003254 133.4876 138.5290  1.00268257 45392
INTELSAT 25 (IS-25)     
1 33153U 08034A   26113.08239256 -.00000278  00000+0  00000+0 0  9994
2 33153   2.5670  80.9425 0002165 274.6153 207.9060  0.99965107 65143
GALAXY 19 (G-19)        
1 33376U 08045A   26122.89194076  .00000000  00000+0  00000+0 0  9994
2 33376   0.0081 266.6412 0002935 139.9803  38.2884  1.00269937 64440
FM-5                    
1 35493U 09034A   26122.46626161 -.00000194  00000+0  00000+0 0  9998
2 35493   0.0126 270.3956 0000285  15.2047  16.4895  1.00272494 46182
INTELSAT 14 (IS-14)     
1 36097U 09064A   26122.90225413 -.00000266  00000+0  00000+0 0  9996
2 36097   0.0067  19.4469 0002645  27.2993  93.8910  1.00272555 60151
INTELSAT 15 (IS-15)     
1 36106U 09067A   26122.90890708 -.00000178  00000+0  00000+0 0  9997
2 36106   0.0185 279.9559 0002522 131.7581 221.4643  1.00271301 40770
DIRECTV 12              
1 36131U 09075A   26122.48589286 -.00000097  00000+0  00000+0 0  9993
2 36131   0.0052  41.7183 0000412  26.2709 224.6197  1.00272420 46098
INTELSAT 16 (IS-16)     
1 36397U 10006A   26122.89601411 -.00000237  00000+0  00000+0 0  9999
2 36397   0.0152 292.6283 0002499 140.0735  34.4763  1.00272025 59206
XM-5                    
1 37185U 10053A   26122.22409550 -.00000017  00000+0  00000+0 0  9990
2 37185   0.0618 271.5077 0003461 272.0353   2.0825  1.00271841 57021
INTELSAT 17 (IS-17)     
1 37238U 10065B   26122.92295476  .00000006  00000+0  00000+0 0  9996
2 37238   0.0154 181.7454 0002733 234.1551 203.2005  1.00270717 52791
INTELSAT 28 (IS-28)     
1 37392U 11016A   26122.90485414 -.00000217  00000+0  00000+0 0  9990
2 37392   1.6901  83.1478 0004283 325.2012 106.5124  1.00271982 52833
INTELSAT 18 (IS-18)     
1 37834U 11056A   26122.87547403  .00000060  00000+0  00000+0 0  9993
2 37834   0.0167 274.7969 0002104 134.5406 306.6171  1.00272242 53355
INTELSAT 22 (IS-22)     
1 38098U 12011A   26122.90204890 -.00000051  00000+0  00000+0 0  9993
2 38098   0.0112 291.7100 0001760 117.1789 208.7645  1.00270159  6735
INTELSAT 19 (IS-19)     
1 38356U 12030A   26122.87270068 -.00000049  00000+0  00000+0 0  9994
2 38356   0.0121 302.5607 0003281 105.7209 292.6756  1.00270975 49991
INTELSAT 20 (IS-20)     
1 38740U 12043A   26122.90112655 -.00000017  00000+0  00000+0 0  9991
2 38740   0.0060 232.3089 0001898 310.3568  71.0590  1.00269187 50291
INTELSAT 21 (IS-21)     
1 38749U 12045A   26122.89965412  .00000000  00000+0  00000+0 0  9998
2 38749   0.0088 295.0167 0002070 120.3898  71.2761  1.00270140 50070
INTELSAT 23 (IS-23)     
1 38867U 12057A   26122.75799527 -.00000278  00000+0  00000+0 0  9997
2 38867   0.0126 285.4091 0000081 267.9476 247.1761  1.00269727 49490
FM-6                    
1 39360U 13058A   26122.48824367 -.00000008  00000+0  00000+0 0  9990
2 39360   0.0089 279.0711 0000302 256.9183 103.8549  1.00263346 45617
INTELSAT 30 (IS-30)     
1 40271U 14062A   26122.03668168 -.00000145  00000+0  00000+0 0  9997
2 40271   0.0167 338.5307 0001151  57.3290 102.2598  1.00271549  6331
DIRECTV 14              
1 40333U 14078B   26122.89150743 -.00000118  00000+0  00000+0 0  9992
2 40333   0.0191 295.4086 0000385 204.9629 302.1432  1.00271005 41587
DIRECTV 15              
1 40663U 15026A   26121.48402309  .00000000  00000+0  00000+0 0  9993
2 40663   0.0117  78.6629 0000659  70.3409 141.7724  1.00269843 39990
SKY MEXICO-1            
1 40664U 15026B   26122.89549411 -.00000227  00000+0  00000+0 0  9998
2 40664   0.0166 276.0808 0002115 132.6220  55.6887  1.00272136 40006
INTELSAT 34 (IS-34)     
1 40874U 15039A   26121.40281402 -.00000281  00000+0  00000+0 0  9994
2 40874   0.0109 291.7970 0000241 118.6956 258.3580  1.00270501 39169
INTELSAT 31 (IS-31)     
1 41581U 16035A   26122.03668168 -.00000145  00000+0  00000+0 0  9994
2 41581   0.0124 247.3505 0001831  27.8170 222.9527  1.00272695 36226
INTELSAT 36 (IS-36)     
1 41747U 16053A   26120.50049799 -.00000022  00000+0  00000+0 0  9995
2 41747   0.0170 324.6529 0001272  12.7588 129.6979  1.00270971 35487
INTELSAT 32E (IS-32E)   
1 41945U 17007B   26120.83481160  .00000000  00000+0  00000+0 0  9998
2 41945   0.0159 269.8801 0000358 105.2391 101.0021  1.00268269 33758
INTELSAT 35E (IS-35E)   
1 42818U 17041A   26122.90433414  .00000000  00000+0  00000+0 0  9995
2 42818   0.0112 283.9919 0002159 121.0289 106.8599  1.00269323 32368
INTELSAT 37E (IS-37E)   
1 42950U 17059A   26122.90754082 -.00000134  00000+0  00000+0 0  9997
2 42950   0.0032  65.5796 0002822 342.4831 121.4744  1.00270922 31611
AZERSPACE 2 (IS-38)     
1 43632U 18074A   26120.56716247  .00000139  00000+0  00000+0 0  9998
2 43632   0.0192 267.1202 0001870 122.1057  78.5764  1.00272087 27975
HORIZONS-3E             
1 43633U 18074B   26120.23514921 -.00000030  00000+0  00000+0 0  9999
2 43633   0.0433  92.2809 0000855 251.8064 127.7359  1.00269998 27866
AT&T T-16               
1 44333U 19034A   26120.96605028 -.00000112  00000+0  00000+0 0  9994
2 44333   0.0342 108.3269 0000456  91.2226 266.2766  1.00273205 25163
INTELSAT 39 (IS-39)     
1 44476U 19049B   26122.61178889  .00000040  00000+0  00000+0 0  9991
2 44476   0.0191 274.3530 0000340 320.3526 268.0095  1.00271464 24674
GALAXY 30 (G-30)        
1 46114U 20056C   26122.60120709  .00000000  00000+0  00000+0 0  9995
2 46114   0.0160 282.2734 0002762 138.0711 251.6169  1.00272805 20839
GALAXY 33 (G-33)        
1 54026U 22128A   26122.59956042  .00000086  00000+0  00000+0 0  9997
2 54026   0.0168 287.8454 0002073 115.7145 259.7999  1.00272013 13288
GALAXY 34 (G-34)        
1 54027U 22128B   26122.39142089  .00000000  00000+0  00000+0 0  9990
2 54027   0.0156 265.9888 0001790 148.0491 178.1782  1.00268197 13453
GALAXY 31 (G-31)        
1 54243U 22153A   26122.88708741  .00000000  00000+0  00000+0 0  9995
2 54243   0.0141 251.7896 0001541 157.6305   9.7271  1.00270687  6678
GALAXY 32 (G-32)        
1 54244U 22153B   26122.89315410 -.00000167  00000+0  00000+0 0  9999
2 54244   0.0133 310.7958 0002964  81.1600  59.3874  1.00272018 12693
GALAXY 35 (G-35)        
1 54741U 22170A   26122.89272076 -.00000155  00000+0  00000+0 0  9997
2 54741   0.0137 264.7027 0002295 145.0162  39.3681  1.00272832 12434
GALAXY 36 (G-36)        
1 54742U 22170B   26122.89350076 -.00000178  00000+0  00000+0 0  9990
2 54742   0.0380 110.9551 0002740 313.4335  29.0817  1.00271737 12314
GALAXY 37 (G-37)        
1 57493U 23112A   26122.60077376  .00000055  00000+0  00000+0 0  9994
2 57493   0.0042 307.6706 0002153  93.6223 268.5027  1.00272164 10083
